IRIDIUM 57 [-]          
1 25273U 98019B   23352.58395520  .00000445  00000+0  14946-3 0  9997
2 25273  86.3965  14.1612 0002198  91.3118 268.8330 14.35017852346375
IRIDIUM 63 [-]          
1 25286U 98021B   23352.88366251  .00000598  00000+0  20106-3 0  9990
2 25286  86.3975 310.9708 0002095  91.3134 268.8302 14.35529074345447
IRIDIUM 71 [-]          
1 25320U 98026B   23352.89602240  .00000657  00000+0  20215-3 0  9993
2 25320  86.3970 320.6933 0004411  88.7793 271.3912 14.40034708344945
IRIDIUM 73 [-]          
1 25344U 98032C   23352.85210613  .00000821  00000+0  20613-3 0  9996
2 25344  86.4416 278.4113 0002801  75.5180 284.6335 14.50193412351349
IRIDIUM 82 [-]          
1 25467U 98051A   23352.58456407  .00012465  00000+0  70414-3 0  9997
2 25467  86.3928  11.3538 0142735 163.5804 197.0128 15.04614420341139
IRIDIUM 2 [-]           
1 25527U 98066A   23352.63160529  .00052156  00000+0  98514-3 0  9995
2 25527  85.5169  58.6136 0002266 309.9725  50.1332 15.48232926379563
